<?xml version="1.0" encoding="UTF-8"?>
<kml xmlns="http://www.opengis.net/kml/2.2" xmlns:gx="http://www.google.com/kml/ext/2.2" xmlns:kml="http://www.opengis.net/kml/2.2" xmlns:atom="http://www.w3.org/2005/Atom">
<Document>
	<name>Boundary competition area GB 2025</name>
	<open>1</open>
	<Snippet maxLines="2"><![CDATA[created using <a href="https://www.gpsvisualizer.com/?ref=ge&time=20250904122438">GPS Visualizer</a>]]></Snippet>
	<Style id="style">
		<LineStyle>
			<color>ff0701fc</color>
			<width>4</width>
		</LineStyle>
	</Style>
	<Style id="style0">
		<LineStyle>
			<color>ff0701fc</color>
			<width>4</width>
		</LineStyle>
	</Style>
	<Style id="style1">
		<LineStyle>
			<color>ff0701fc</color>
			<width>4</width>
		</LineStyle>
	</Style>
	<Style id="style2">
		<LineStyle>
			<color>ff0701fc</color>
			<width>4</width>
		</LineStyle>
	</Style>
	<Style id="style3">
		<LineStyle>
			<color>ff0701fc</color>
			<width>4</width>
		</LineStyle>
	</Style>
	<Style id="style4">
		<LineStyle>
			<color>ff0701fc</color>
			<width>4</width>
		</LineStyle>
	</Style>
	<Style id="style5">
		<LineStyle>
			<color>ff0701fc</color>
			<width>4</width>
		</LineStyle>
	</Style>
	<Style id="style6">
		<LineStyle>
			<color>ff0701fc</color>
			<width>4</width>
		</LineStyle>
	</Style>
	<Style id="style7">
		<LineStyle>
			<color>ff0701fc</color>
			<width>4</width>
		</LineStyle>
	</Style>
	<Style id="style8">
		<LineStyle>
			<color>ff0701fc</color>
			<width>4</width>
		</LineStyle>
	</Style>
	<StyleMap id="stylemap_id4">
		<Pair>
			<key>normal</key>
			<styleUrl>#style6</styleUrl>
		</Pair>
		<Pair>
			<key>highlight</key>
			<styleUrl>#style4</styleUrl>
		</Pair>
	</StyleMap>
	<StyleMap id="stylemap_id5">
		<Pair>
			<key>normal</key>
			<styleUrl>#style</styleUrl>
		</Pair>
		<Pair>
			<key>highlight</key>
			<styleUrl>#style5</styleUrl>
		</Pair>
	</StyleMap>
	<StyleMap id="stylemap_id6">
		<Pair>
			<key>normal</key>
			<styleUrl>#style0</styleUrl>
		</Pair>
		<Pair>
			<key>highlight</key>
			<styleUrl>#style1</styleUrl>
		</Pair>
	</StyleMap>
	<StyleMap id="stylemap_id7">
		<Pair>
			<key>normal</key>
			<styleUrl>#style3</styleUrl>
		</Pair>
		<Pair>
			<key>highlight</key>
			<styleUrl>#style2</styleUrl>
		</Pair>
	</StyleMap>
	<StyleMap id="stylemap_id8">
		<Pair>
			<key>normal</key>
			<styleUrl>#style8</styleUrl>
		</Pair>
		<Pair>
			<key>highlight</key>
			<styleUrl>#style7</styleUrl>
		</Pair>
	</StyleMap>
	<Folder id="Tracks">
		<name>Tracks</name>
		<open>1</open>
		<Placemark>
			<name>Finnland/Russland</name>
			<Snippet maxLines="0"></Snippet>
			<description>&amp;nbsp;</description>
			<Style>
				<LineStyle>
					<color>ff0000e6</color>
					<width>4</width>
				</LineStyle>
			</Style>
			<LineString>
				<tessellate>1</tessellate>
				<coordinates>
					30.826842853,69.787291426,0 30.846525737,69.74404545500001,0 30.873540231,69.724770982,0 30.885445662,69.70444785399999,0 30.939352342,69.69001400800001,0 30.93967516,69.667234708,0 30.914307662,69.647629235,0 30.909546681,69.566005688,0 30.876924821,69.54787947600001,0 30.819013186,69.535598565,0 30.659340926,69.542691674,0 30.558103629,69.540622111,0 30.499267884,69.547113303,0 30.398386069,69.59728104200001,0 30.344879933,69.614386368,0 30.22841055,69.63538319200001,0 30.15354199,69.659597773,0 30.094906755,69.667424712,0 30.068014928,69.662584115,0 30.093227216,69.631288025,0 30.156313249,69.603281517,0 30.16601569299999,69.568265255,0 30.147501894,69.544509042,0 30.123736568,69.53558946,0 30.099693247,69.499883361,0 30.088756867,69.45186856799999,0 29.993694969,69.416190263,0 29.903439113,69.412569672,0 29.878749915,69.422422187,0 29.849132009,69.424332045,0 29.76765496299999,69.40446729999999,0 29.659809299,69.358318385,0 29.619532653,69.338999968,0 29.561620899,69.326719064,0 29.468038388,69.32584171400001,0 29.404474445,69.325725976,0 29.28845060700001,69.299828429,0 29.264685222,69.290908847,0 29.259478637,69.256179664,0 29.293747552,69.235425953,0 29.281086393,69.20084028300001,0 29.221895524,69.155094195,0 29.208833822,69.11783703,0 29.049452074,69.02713422799999,0 28.97358227599999,69.04467018299999,0 28.91142002500001,69.053904582,0 28.898607085,69.046416894,0 28.882124998,69.033035118,0 28.792592712,69.009306688,0 28.645749443,68.97730457,0 28.55248987,68.953647941,0 28.428210542,68.922550961,0 28.415426661,68.91208033300001,0 28.426731196,68.88775000699999,0 28.494222746,68.889129721,0 28.570370384,68.898380332,0 28.696697422,68.893268816,0 28.756534137,68.893456355,0 28.789401331,68.863352463,0 28.78579674,68.83930920100001,0 28.708615415,68.748363286,0 28.639967464,68.689403355,0 28.545028315,68.629609913,0 28.462672781,68.578951418,0 28.442957542,68.54718083100001,0 28.45903579300001,68.479891572,0 28.489299575,68.43242309599999,0 28.553432027,68.361529436,0 28.56938759399999,68.31835522900001,0 28.631917992,68.236775663,0 28.645147482,68.20035188999999,0 28.691399136,68.18472587700001,0 28.841414133,68.16308316200001,0 28.964136639,68.133928385,0 29.040607253,68.12039971,0 29.08140699,68.118274536,0 29.156475821,68.095395651,0 29.25863699,68.078693148,0 29.321399966,68.07346594000001,0 29.342562118,68.06502091500001,0 29.383206645,68.01199420899999,0 29.456195393,67.94581955300001,0 29.520405331,67.89627287499999,0 29.610505858,67.844722107,0 29.675717154,67.802457154,0 29.681569615,67.79064977199999,0 29.800364576,67.760453027,0 29.948700033,67.697455776,0 30.008459054,67.669911043,0 29.982736193,67.591580343,0 29.950637661,67.54843713,0 29.943706356,67.52521355099999,0 29.831932984,67.473518935,0 29.769215189,67.425176245,0 29.688461624,67.381593865,0 29.644858323,67.36352184099999,0 29.635601364,67.35057103299999,0 29.645181261,67.33868538999999,0 29.62866994,67.327347484,0 29.520301126,67.300411043,0 29.456381641,67.243330148,0 29.37089958,67.192544219,0 29.320765398,67.154161331,0 29.260250352,67.121838596,0 29.152727567,67.046685693,0 29.062116437,66.98578344000001,0 29.039520047,66.903005369,0 29.086818389,66.839207992,0 29.126739584,66.80331635500001,0 29.251910217,66.734963097,0 29.350188859,66.66133212299999,0 29.473679848,66.553578794,0 29.577533312,66.43893487699999,0 29.647918649,66.352744333,0 29.723032422,66.27375736099999,0 29.84852606800001,66.180567689,0 29.925965615,66.091307945,0 29.979193993,66.04345232999999,0 30.014909811,65.975098135,0 30.05747956800001,65.898302883,0 30.116282649,65.80218189999999,0 30.128232904,65.71976280200001,0 30.129086355,65.708435099,0 30.129156599,65.69807489900001,0 30.151443014,65.66755336200001,0 30.105942344,65.661834782,0 30.033910726,65.68576534899999,0 30.002300774,65.692485589,0 29.914609765,65.67303916900001,0 29.877322947,65.66702579299999,0 29.791044985,65.65869480000001,0 29.74938569,65.650208201,0 29.720191573,65.644011073,0 29.743884181,65.62289309099999,0 29.788962101,65.594429515,0 29.835344528,65.576226353,0 29.856077706,65.56375056500001,0 29.853076195,65.556101203,0 29.822142874,65.536223553,0 29.754641508,65.500026189,0 29.736390804,65.48414806300001,0 29.730279182,65.46799432500001,0 29.729868864,65.432846106,0 29.723171626,65.396125607,0 29.742733692,65.342516385,0 29.73366264,65.335004858,0 29.700313543,65.32804455599999,0 29.641991888,65.30021377600001,0 29.614168679,65.288840495,0 29.601335381,65.267694346,0 29.603642558,65.253921948,0 29.641714727,65.234192483,0 29.677697216,65.229945473,0 29.710828935,65.235195718,0 29.751292621,65.234276943,0 29.78738371,65.230884962,0 29.848037039,65.213215284,0 29.875057195,65.202311717,0 29.881410753,65.188447408,0 29.828397726,65.154493652,0 29.895805424,65.108386142,0 29.885531491,65.097369356,0 29.833651251,65.084797276,0 29.7040425,65.088990165,0 29.658853,65.082516207,0 29.627300447,65.066982551,0 29.60500974,65.031238465,0 29.610565728,64.958611969,0 29.635401791,64.898047715,0 29.645552939,64.86156705,0 29.689827388,64.814311504,0 29.729373878,64.799663469,0 29.862565821,64.80038929,0 29.940197056,64.806126624,0 30.036730117,64.797684699,0 30.067112154,64.78074477600001,0 30.070475405,64.76066830800001,0 30.035815066,64.74395522499999,0 30.054083055,64.72479033499999,0 30.097626632,64.69505146100001,0 30.139427489,64.65160208899999,0 30.109239644,64.62353742099999,0 30.044611639,64.603754759,0 29.996886796,64.577338248,0 29.98534531,64.55635017199999,0 29.998604244,64.52104890299999,0 30.027084535,64.489152133,0 30.045194095,64.46874088,0 30.065399168,64.41828176,0 30.061437963,64.387121549,0 30.10393381,64.37240656900001,0 30.16986513,64.35590945600001,0 30.2621814,64.33756325,0 30.347331403,64.30937970399999,0 30.362650154,64.29028178,0 30.361382602,64.280310504,0 30.404195307,64.26808834800001,0 30.476975916,64.258935757,0 30.492136238,64.23859141,0 30.490868567,64.22862014899999,0 30.472064017,64.22029709100001,0 30.496485947,64.179742344,0 30.517544506,64.159264095,0 30.538920163,64.14127864699999,0 30.540857314,64.10998449500001,0 30.509974717,64.053185411,0 30.459556101,64.00557995600001,0 30.411514281,63.97493882800001,0 30.342291115,63.914858535,0 30.314418791,63.879282825,0 30.26479256,63.83483812199999,0 30.197690485,63.81767568,0 30.130905507,63.803191051,0 30.005866526,63.771328211,0 29.987220167,63.763726264,0 29.988743423,63.75160390100001,0 30.056673168,63.725776613,0 30.06634518,63.721733928,0 30.05566118,63.692420832,0 30.092989363,63.65794038400001,0 30.155496098,63.636273773,0 30.225107707,63.599663089,0 30.309940912,63.566709522,0 30.346221306,63.548368215,0 30.395980396,63.518955752,0 30.436002233,63.507237166,0 30.482495107,63.47521878,0 30.525149443,63.460750393,0 30.615150191,63.44646997000001,0 30.741589882,63.415187142,0 30.793567278,63.404519759,0 30.843167998,63.373768366,0 30.908465483,63.350690864,0 30.974079945,63.330291263,0 31.024314501,63.304895602,0 31.109147646,63.271942041,0 31.159064986,63.243868522,0 31.224204041,63.219452105,0 31.245262958,63.19745367,0 31.249040343,63.15439196600001,0 31.268611409,63.09483145900001,0 31.298834898,63.07529514199999,0 31.38836024,63.056997887,0 31.4184253,63.03612261199999,0 31.461713411,63.027009956,0 31.466185905,63.01481568,0 31.457593777,62.992197631,0 31.519625046,62.966514233,0 31.549848415,62.94697786500001,0 31.566531994,62.913001016,0 31.513322689,62.863272488,0 31.45326409500001,62.805654272,0 31.450728752,62.784231365,0 31.410901167,62.74760443,0 31.359848597,62.69110935900001,0 31.355631926,62.680469871,0 31.35624,62.61062947600001,0 31.334900106,62.580265614,0 31.286224569,62.543854534,0 31.235550489,62.515548981,0 31.189031924,62.472371283,0 31.174382772,62.448558233,0 31.131922688,62.414681128,0 31.023311342,62.371675178,0 30.947934057,62.334572598,0 30.935027863,62.32548779199999,0 30.939658667,62.314632445,0 30.89910015,62.29682257700001,0 30.831681217,62.276982232,0 30.725543763,62.229887529,0 30.673980381,62.21906004800001,0 30.60871854,62.192453101,0 30.58953556,62.15532268500001,0 30.546916987,62.120106652,0 30.461265857,62.07116942,0 30.339686955,61.993130315,0 30.262566681,61.937780906,0 30.147361665,61.859046325,0 30.082575148,61.834922612,0 29.96331169799999,61.74625605300001,0 29.899194662,61.679352696,0 29.869799201,61.654307197,0 29.7148279,61.563702795,0 29.654989068,61.530846528,0 29.608690445,61.513411078,0 29.563342397,61.50455459,0 29.51098669,61.485842953,0 29.486917321,61.482168033,0 29.445505028,61.428756449,0 29.363120084,61.379280004,0 29.312762921,61.351912583,0 29.268304323,61.324391524,0 29.209830259,61.277160163,0 29.146250044,61.237231563,0 29.065608074,61.203483234,0 29.018358652,61.177468817,0 28.941616659,61.152222614,0 28.880888575,61.138030927,0 28.787974239,61.100300352,0 28.706003276,61.027869891,0 28.682761867,60.978286833,0 28.656632577,60.956024121,0 28.606019904,60.953040611,0 28.557881092,60.945690773,0 28.507426863,60.94413705499999,0 28.351090734,60.867907748,0 28.190854614,60.783176303,0 28.150612895,60.76701703700001,0 28.134598975,60.755962491,0 28.100414161,60.74107939,0 28.090298717,60.729871243,0 28.028400108,60.678427264,0 27.978676721,60.65677915700001,0 27.892867311,60.603090046,0 27.840767189,60.55999453,0 27.80068384,60.54526509700001,0 27.781906989,60.493641177,0 27.77022149900001,60.46191028700001,0 27.753734526,60.443195174,0 27.710613159,60.420959542,0 27.63882320800001,60.392715032,0 27.583189008,60.371156061,0 27.492144746,60.339700634,0 27.414914665,60.328049788,0 27.36067608500001,60.312557185,0 27.322167472,60.30613544,0 26.547377474,60.13442614500001,0 25.867764011,59.881978744,0 27.669464266,59.557827209,0 28.042256942,59.46237374,0 
				</coordinates>
			</LineString>
		</Placemark>
		<Placemark>
			<name>Boundary competition area GB 2025 2</name>
			<Snippet maxLines="0"></Snippet>
			<description>&amp;nbsp;</description>
			<styleUrl>#stylemap_id4</styleUrl>
			<LineString>
				<tessellate>1</tessellate>
				<coordinates>
					19.802063545,54.4446997,0 19.945575794,54.430049206,39.99999999999999 19.996575555,54.427199076,49.00000000000001 20.045114002,54.421867783,0 20.109449109,54.418606724,0 20.208987436,54.410425331,0 20.290506324,54.400242235,0 20.401635131,54.39681765,0 20.512405595,54.389568592,0 20.558721444,54.384305815,0 20.654172799,54.380085866,0 20.760020575,54.367874528,0 20.839555582,54.360309552,0 21.01628696,54.343356873,0 21.102967402,54.340685691,0 21.207070193,54.33364212099999,0 21.315976387,54.330286021,0 21.449689154,54.330000992,0 21.643172628,54.325316991,0 21.750453314,54.328403498,0 21.795024237,54.328308458,0 21.956243774,54.33612522,0 22.085989079,54.34107642899999,0 22.141792259,54.341913755,0 22.26697292,54.345727126,0 22.501537523,54.351283665,0 22.731776199,54.358251984,0 22.770276508,54.364736508,0 22.77373941800001,54.40170621399999,0 22.76814647599999,54.413385029,0 22.729619345,54.454205702,0 22.704500756,54.47160023,0 22.706769428,54.49582174,0 22.688557586,54.515560421,0 22.682964405,54.527239251,0 22.715559801,54.56586817900001,0 22.709847292,54.576272191,0 22.682267389,54.591185567,0 22.71823307,54.61820416300001,0 22.746336898,54.632680065,0 22.753959855,54.64267311900001,0 22.740551314,54.666099276,0 22.726784548,54.685700963,0 22.728814563,54.707372855,0 22.760335049,54.734528433,0 22.807055434,54.757380108,0 22.839365682,54.769169401,0 22.868544063,54.795118655,0 22.871721944,54.80524867299999,0 22.844307622,54.845726903,0 22.845621189,54.85974987899999,0 22.85419949,54.87994148899999,0 22.819832405,54.893785532,0 22.81177803,54.90298318399999,0 22.779275259,54.91293429900001,0 22.760897598,54.907108153,0 22.750620684,54.916374351,0 22.741776428,54.940938319,0 22.701696953,54.96518635299999,0 22.651652416,54.978235032,0 22.633752426,54.977508153,0 22.624788961,55.000797325,0 22.621345481,55.03542282399999,0 22.600791415,55.053955175,0 22.585830411,55.06080870300001,0 22.550388655,55.063179404,0 22.412781557,55.045685511,0 22.33895894,55.04284650099999,0 22.264107844,55.052824073,0 22.224101445,55.05405693900001,0 22.163494906,55.049532112,0 22.12685897,55.039154649,0 22.096413097,55.023472453,0 22.056167921,55.022155629,0 22.036403617,55.025321711,0 22.026245972,55.035862688,0 22.039627692,55.059741732,0 22.040582976,55.069940291,0 22.008199653,55.08116619299999,0 21.990657887,55.084263779,2 21.938344499,55.073090903,20 21.90044134,55.07298044900001,15 21.883138379,55.078627646,14 21.808452925,55.11417008200001,2 21.778411618,55.126602352,1 21.721341094,55.13603206,1 21.68697401,55.149876103,0 21.671223408,55.172095865,0 21.622014767,55.194068268,4.999999999999999 21.548908597,55.198878124,1 21.49659524,55.187705293,0 21.463661092,55.216847152,0 21.429579078,55.25753083799999,2 21.384158137,55.284368839,0 21.386157854,55.287839871,1 21.381946399,55.289611307,2 21.374927296,55.289611307,0 21.371558129,55.28912818800001,0 21.364258266,55.286229475,0 21.35555458,55.28204244499999,0 21.340954858,55.275117742,-2 21.332531935,55.27028655500001,-2 21.316809154,55.26046314,-4.999999999999999 21.306420886,55.254182596,-4 21.298559495,55.250478685,-2 21.288171228,55.246613734,-1 21.274694557,55.243231901,-2 21.265429346,55.242265665,0 20.98663072,55.274634625,1 20.956027445,55.279626852,2 18.01944051,56.09495737100001,0 17.55000427,55.84805098699999,0 19.638896032,54.458388485,1 19.646725617,54.45342358400001,17 19.648509023,54.453074295,4 19.803226179,54.442077473,-1 
				</coordinates>
			</LineString>
		</Placemark>
		<Placemark>
			<name>Türkei</name>
			<Snippet maxLines="0"></Snippet>
			<description>&amp;nbsp;</description>
			<styleUrl>#stylemap_id5</styleUrl>
			<LineString>
				<tessellate>1</tessellate>
				<coordinates>
					28.022513944,41.981145084,0 27.940591175,41.981718838,0 27.923627216,41.989722789,0 27.901409465,41.992260993,0 27.862325865,42.004529783,0 27.842588026,42.006917601,0 27.822359044,42.000238347,0 27.816614348,41.985423505,0 27.836672384,41.941716105,0 27.81892295500001,41.934749469,0 27.782417017,41.948960155,0 27.751361329,41.972379327,0 27.73181935,41.978586048,0 27.664675671,41.976843909,0 27.626697141,41.962984696,0 27.595666605,41.939546541,0 27.585061151,41.926743627,0 27.583490449,41.896802381,0 27.560880023,41.891855225,0 27.543915945,41.89985919,0 27.520593244,41.928670064,0 27.504021841,41.944159329,0 27.482393342,41.957925454,0 27.458088833,41.968023062,0 27.443997103,41.983438209,0 27.410167176,42.00127675,0 27.388244111,42.009176594,0 27.373955924,42.020487899,0 27.369782168,42.035138831,0 27.346361357,42.061244678,0 27.315305489,42.08393909,0 27.273840624,42.097853631,0 27.234168071,42.099002413,0 27.216418642,42.092251353,0 27.207409281,42.06345208,0 27.187180239,42.056772824,0 27.100691039,42.064726084,0 27.066762942,42.080238633,0 27.027188677,42.083200872,0 27.00934102,42.074636385,0 26.984472591,42.028133748,0 26.943818349,42.011148391,0 26.895921785,41.997941554,0 26.832755345,41.977337957,0 26.768091101,41.975521729,0 26.680816519,41.96875836,0 26.641242135,41.971815184,0 26.618828166,41.970610693,0 26.582838404,41.947320745,0 26.574614424,41.932572395,0 26.590498525,41.903983817,0 26.584754038,41.889161378,0 26.525270406,41.844082326,0 26.469444367,41.821385108,0 26.447128567,41.82205195,0 26.425107281,41.828332782,0 26.402791459,41.828999624,0 26.380082961,41.822181143,0 26.346474563,41.796945766,0 26.335672851,41.780400191,0 26.328357587,41.735636497,0 26.332531258,41.720517684,0 26.344241706,41.707047921,0 26.42736778,41.682072804,0 26.447007704,41.677737396,0 26.453660909,41.662544489,0 26.492940757,41.653873682,0 26.538186568,41.616910681,0 26.577564615,41.610111192,0 26.611492711,41.594103262,0 26.597327876,41.560789809,0 26.597353029,41.513932511,0 26.604006279,41.498739615,0 26.618098068,41.483324409,0 26.61822139,41.438338459,0 26.628164727,41.391184807,0 26.636512029,41.360947132,0 26.625710356,41.344401598,0 26.576635677,41.30838278,0 26.558788064,41.299544811,0 26.514058265,41.299007148,0 26.491840634,41.301545292,0 26.456145409,41.283869356,0 26.425212893,41.262302518,0 26.407463449,41.255335868,0 26.387725349,41.257799983,0 26.325344297,41.252166957,0 26.305435011,41.20403111,0 26.3020719,41.187263191,0 26.324609224,41.143481732,0 26.328782894,41.128362954,0 26.31331664,41.11757952,0 26.307572172,41.102757096,0 26.324954076,41.055381179,0 26.32338328100001,41.025439918,0 26.344128292,40.994831812,0 26.361092332,40.986827799,0 26.367745544,40.971634949,0 26.364480607,40.956738379,0 26.353875245,40.943935446,0 26.333842621,40.940785564,0 26.314300872,40.946992282,0 26.303499162,40.930446729,0 26.302713761,40.915476091,0 26.292010225,40.900801845,0 26.252337675,40.901987314,0 26.233410131,40.872564763,0 26.200194437,40.854814649,0 26.19692951,40.839918077,0 26.1861278,40.823372528,0 26.155195284,40.801805735,0 26.110097948,40.746925503,0 26.092348519,40.739958763,0 26.072414074,40.738680243,0 26.05466463,40.731713504,0 
				</coordinates>
			</LineString>
		</Placemark>
		<Placemark>
			<name>Luftraumgrenze Türkei</name>
			<Snippet maxLines="0"></Snippet>
			<description>&amp;nbsp;</description>
			<styleUrl>#stylemap_id6</styleUrl>
			<LineString>
				<tessellate>1</tessellate>
				<coordinates>
					26.041861,40.745358,3 25.875456,40.616283,0 25.899895,40.385235,0 25.669724,40.250622,0 25.601147,40.101231,0 25.69949,39.950451,0 25.698906,39.502365,0 25.993277,39.380951,0 26.416777,39.464638,0 26.759665,39.0173,0 26.329535,38.666424,0 26.347834,38.489742,0 26.180405,38.297623,0 26.199007,38.219429,0 26.497683,37.994919,0 26.93074,37.998543,0 27.149311,37.834568,0 27.102329,37.720745,0 26.984873,37.668617,0 26.98283,37.568298,0 27.049217,37.549271,0 27.184038,37.266533,0 27.104006,37.155735,0 27.248383,36.969269,0 27.432739,36.899876,0 27.432739,36.815292,0 27.235617,36.734711,0 27.452,36.567665,0 27.85033,36.718102,0 27.933863,36.699387,0 27.965597,36.518135,0 28.29972800000001,36.566784,0 28.882633,36.213242,0 29.247406,36.098969,0 29.375805,36.180862,0 29.582193,36.182278,47 29.734377,36.067604,0 30.00066,36.08099,0 33.493866,35.907516,0 35.912716,35.931667,79 
				</coordinates>
			</LineString>
		</Placemark>
		<Placemark>
			<name>Ostgrenze EU</name>
			<Snippet maxLines="0"></Snippet>
			<description>&amp;nbsp;</description>
			<styleUrl>#stylemap_id7</styleUrl>
			<LineString>
				<tessellate>1</tessellate>
				<coordinates>
					28.046761124,59.46856731300001,0 28.100443055,59.45897931499999,0 28.122288017,59.431087942,0 28.199778466,59.393533108,0 28.20660737,59.3861519,0 28.202299504,59.37004595,0 28.153678863,59.334286558,0 28.13794133,59.307433182,0 28.114290326,59.29410450999999,0 28.081260769,59.284187158,0 28.01332566,59.278662094,0 27.943632333,59.261000977,0 27.923615484,59.245498703,0 27.894484578,59.207973392,0 27.856034009,59.160636516,0 27.800584524,59.132258312,0 27.784700393,59.104393602,0 27.778341382,59.074128912,0 27.749004959,59.04881511699999,0 27.740975349,59.02064855500001,0 27.748156159,59.00206716499999,0 27.742236673,58.974836506,0 27.679079204,58.94777147799999,0 27.593062251,58.89921163799999,0 27.523134856,58.866305009,0 27.461061938,58.833096504,0 27.401978223,58.806891933,0 27.356141357,58.790347934,0 27.361270993,58.75760780600001,0 27.394009143,58.697365518,0 27.426981478,58.65236876499999,0 27.440785676,58.63861768299999,0 27.465757042,58.592911433,0 27.487446039,58.538178589,0 27.494978815,58.508397024,0 27.509135097,58.48344577500001,0 27.515583366,58.45980767500001,0 27.52792254,58.435943227,0 27.53510335,58.417361822,0 27.555502384,58.380984004,0 27.557730346,58.35547420000001,0 27.528247445,58.329149004,0 27.502105742,58.298627581,0 27.495453685,58.266340222,0 27.507998257,58.230264243,0 27.52687326,58.19699591,0 27.553456157,58.162414338,0 27.58425936,58.129704561,0 27.616234689,58.105085578,0 27.617935568,58.062307443,0 27.627637475,58.020238843,0 27.652197807,57.998895686,29 27.668376661,57.958447766,38 27.673886872,57.941017166,48 27.686899698,57.935111269,51 27.698300755,57.917441279,54 27.722362554,57.905709274,52 27.773123777,57.901495628,43 27.806065595,57.89693068,45 27.819430387,57.879180893,57 27.795984781,57.852172807,64 27.774151004,57.83692883000001,67 27.723096884,57.83900356300001,67 27.653784132,57.837518603,64 27.620402611,57.83887516,39.99999999999999 27.584178424,57.83389473,41 27.549038744,57.82241772099999,94 27.509650207,57.77992628499999,140 27.529257751,57.75009320700001,151 27.527558482,57.72327685400001,162 27.522459126,57.714880735,156 27.506750202,57.7155191,159 27.493590868,57.720355541,162 27.446816004,57.71042677800001,178 27.417420662,57.697640926,176 27.38401047,57.669962347,199 27.379409647,57.65079179400001,200 27.38477341,57.632291764,181 27.393419361,57.62333703,188 27.392100787,57.613711894,174 27.366925693,57.602905333,191 27.349399603,57.604692996,179 27.316722071,57.582361758,180 27.313586331,57.573885858,179 27.337707138,57.548171014,165 27.342425859,57.539375931,161 27.357695318,57.535529166,173 27.393626487,57.538370669,177 27.424838937,57.55000725400001,164 27.456696427,57.551938891,164 27.536179102,57.541180998,144 27.555874264,57.52640017900001,139 27.555611527,57.481243312,128 27.525249517,57.446988404,134 27.522113776,57.43851250399999,131 27.526832497,57.42971736200001,132 27.554968214,57.418895245,147 27.603033042,57.409414113,136 27.655171669,57.400842726,128 27.699866688,57.36676394900001,111 27.751771248,57.342070878,98.00000000000001 27.790956056,57.325422704,94 27.874761768,57.28207389799999,82 27.872681685,57.25346143400001,79 27.856740065,57.21511782500001,79 27.821787067,57.168586983,81 27.81486947100001,57.14581030399999,81 27.784623392,57.12783528700001,83 27.744494327,57.118670587,89 27.72969658,57.096063837,87 27.742102273,57.08576625199999,88 27.765430876,57.080964585,86 27.772479006,57.069349667,84 27.737083443,57.052918563,85 27.723221727,57.043187419,84 27.715264149,57.006104497,88 27.733131238,56.998554886,0 27.759502717,56.999419064,0 27.770244249,56.96623150600001,0 27.752923795,56.945112024,0 27.724992402,56.922788493,0 27.70860798,56.914544612,0 27.684655317,56.910762548,0 27.670689591,56.89960077400001,0 27.674071022,56.873736262,0 27.661484071,56.84535039999999,0 27.663278766,56.833848745,0 27.686815329,56.83190833,0 27.732717939,56.84811286599999,0 27.768113502,56.864543945,0 27.836512633,56.864501834,0 27.863742777,56.84098878499999,0 27.884340592,56.834813133,0 27.945587583,56.84495531,0 27.966081448,56.837349027,0 27.975756355,56.825677469,0 27.968630858,56.800039545,0 27.921896168,56.772390008,0 27.909725257,56.749726623,0 27.923717685,56.725066155,0 28.001818367,56.677530229,0 28.024549552,56.628322661,0 28.041064688,56.602174878,0 28.056097098,56.591820687,0 28.118722745,56.584738702,0 28.136485883,56.575758487,0 28.14270217,56.55269852299999,0 28.112248011,56.531862289,0 28.120986887,56.50731509900001,0 28.152846404,56.47510504700001,0 28.192690082,56.444155633,0 28.194276758,56.429792762,0 28.173705526,56.400146186,0 28.169102736,56.373021007,0 28.19750339599999,56.32942253400001,0 28.213733145,56.263160706,0 28.209962436,56.247480452,0 28.18465776,56.225100338,0 28.143203326,56.161515296,0 28.101104322,56.13241738100001,0 28.083682957,56.12928149099999,0 28.043274226,56.105571881,0 27.988077822,56.11495583500001,0 27.951514187,56.114573784,0 27.945353451,56.088955112,0 27.933774772,56.077499554,0 27.881957235,56.044671789,0 27.860159221,56.040459752,0 27.823680463,56.041246403,0 27.808320048,56.03689555100001,0 27.799057069,56.027731106,0 27.798377397,56.01838157099999,0 27.818646076,56.001557151,0 27.80929816,55.990757738,0 27.778322282,55.97790134000001,0 27.741503658,55.973806639,0 27.721766534,55.968091295,0 27.683163765,55.93815009,0 27.622593048,55.901311484,0 27.610334697,55.87940099899999,0 27.615859332,55.83489777599999,0 27.607807639,55.81165905,0 27.571520629,55.784130674,0 27.552038434,55.782107693,0 27.511352959,55.784264383,0 27.49195569999999,55.783472177,0 27.411519411,55.801324215,0 27.370833995,55.80348089,0 27.351436737,55.802688685,0 27.311962577,55.791258019,0 27.276780012,55.779729855,0 27.25746769,55.78016844099999,0 27.22819105,55.791927767,0 27.208007368,55.810876873,0 27.177009674,55.828838844,0 27.128590646,55.84349832400001,0 27.094427588,55.846739609,0 27.079067084,55.842157577,0 27.05006704,55.826790874,0 26.991535457,55.819491145,0 26.974029156,55.814957854,0 26.925993497,55.772903707,0 26.902241441,55.740159806,0 26.879593885,55.723416117,0 26.846047361,55.704454523,0 26.778082921,55.685041842,0 26.768904949,55.676621255,0 26.751738469,55.67701112900001,0 26.731384868,55.693498668,0 26.656791317,55.702589002,0 26.639624837,55.702978876,0 26.626240196,55.695886519,0 26.624795857,55.674963173,0 26.63195652,55.62302651699999,0 26.630427214,55.600872364,0 26.612772765,55.563059118,0 26.572448971,55.539320555,0 26.547570648,55.52139484599999,0 26.534462663,55.487176505,0 26.544958594,55.452422079,0 26.543174448,55.426575598,0 26.525944772,55.394916293,0 26.483560118,55.372457263,0 26.463907989,55.367972669,0 26.439029666,55.350046989,0 26.447018149,55.341236529,0 26.480586501,55.32937973399999,0 26.542560073,55.32427412,0 26.564018163,55.323786852,0 26.607529091,55.33142769,0 26.641862052,55.330648002,0 26.659648163,55.32701104900001,0 26.714819568,55.328991112,0 26.774222548,55.317780372,0 26.812847123,55.31690317100001,0 26.830183525,55.318974909,0 26.847095116,55.314892706,0 26.850707045,55.304948923,0 26.840594503,55.28298967799999,0 26.829270724,55.27461784800001,0 26.755548547,55.265197691,0 26.740018102,55.258154151,0 26.709318856,55.218171653,0 26.695169585,55.20000219,0 26.698016855,55.17898142,0 26.684547278,55.170658287,0 26.647473785,55.162871298,0 26.582759636,55.159410116,0 26.532471451,55.146992203,0 26.477891656,55.134671864,0 26.441242936,55.133038816,0 26.383900824,55.142970022,0 26.330170604,55.14295750500001,0 26.283664289,55.12305754100001,0 26.248991492,55.11891412400001,0 26.251350757,55.059690225,0 26.21085706,55.03349011299999,0 26.202890303,55.011482164,0 26.18032771,54.995969258,0 26.141193386,54.989461709,0 26.106690492,54.987779846,0 26.091329988,54.98319782899999,0 26.066366699,54.964041308,0 26.047925796,54.945969373,0 26.032480326,54.940156564,0 25.986292031,54.955998093,0 25.967149686,54.958898257,0 25.949813288,54.956826542,0 25.90725873,54.931905925,0 25.874136996,54.919098265,0 25.859732833,54.89723650400001,0 25.8188143,54.86488246899999,0 25.785522662,54.849613234,0 25.7468349,54.818441227,0 25.735702824,54.781712562,0 25.739506451,54.743412018,0 25.746475426,54.719832152,0 25.746412244,54.687783003,0 25.739741705,54.653418452,0 25.74241906,54.629936039,0 25.751533844,54.606307477,0 25.765280093,54.587504566,0 25.753276624,54.569286436,0 25.692536037,54.529986233,0 25.67468987,54.520529807,0 25.64955666299999,54.498911738,0 25.634812649,54.472126782,0 25.639126059,54.441210926,0 25.622576084,54.41939801,0 25.605346423,54.38773858500001,0 25.591706898,54.376953959,0 25.55694915,54.371579766,0 25.534046706,54.351143777,0 25.531221207,54.341346204,0 25.549174111,54.321215034,0 25.563854944,54.315950751,0 25.583082255,54.314281404,0 25.616034072,54.324627519,0 25.652767707,54.327491343,0 25.66976426900001,54.324640036,0 25.704543803,54.299195766,0 25.718205091,54.279162109,0 25.753069593,54.254948795,0 25.778076452,54.2124685,0 25.780350756,54.1520138,0 25.786108506,54.142021323,0 25.744573486,54.131870149,0 25.713745695,54.152293707,0 25.679837537,54.15922733600001,0 25.647842121,54.131601511,0 25.634457481,54.124509184,0 25.615060222,54.123716986,0 25.571187687,54.141971356,0 25.537789312,54.156289714,0 25.528589558,54.17868752299999,0 25.532179725,54.199562142,0 25.576710176,54.221972438,0 25.584591937,54.242749611,0 25.576773357,54.254021595,0 25.499757331,54.2902867,0 25.496230346,54.301461215,0 25.483865273,54.309138323,0 25.45091345599999,54.298792238,0 25.4174519,54.28106140599999,0 25.399775658,54.27406656200001,0 25.319276199,54.259869421,0 25.282882395,54.261928643,0 25.253605709,54.27368796899999,0 25.236354266,54.272847022,0 25.201618288,54.23665442600001,0 25.19853790499999,54.22316452399999,0 25.189190012,54.212282377,0 25.144404676,54.186179715,0 25.11944138699999,54.16702319900001,0 25.063417223,54.133779487,0 25.011832845,54.13371826200001,0 24.994751316,54.135338905,0 24.96358369,54.150839313,0 24.951303583,54.15974720399999,0 24.932161224,54.162647365,0 24.895257664,54.157321869,0 24.860160035,54.147024507,0 24.82703833,54.13421684,0 24.809531998,54.129683551,0 24.796062422,54.121360442,0 24.794448149,54.09797551,0 24.814631802,54.079026405,0 24.851642114,54.054764299,0 24.861776453,54.045905138,0 24.876457256,54.040640871,0 24.880069208,54.030697125,0 24.875012886,54.019717517,0 24.857251716,54.011491867,0 24.850817376,54.010182493,0 24.821282726,54.019705022,0 24.78542043,53.99824839,0 24.767999124,53.994783299,0 24.754359615,53.983467668,0 24.723213744,53.967395552,0 24.688456011,53.961756743,0 24.676260841,53.972394578,0 24.703964662,54.001413176,0 24.704644334,54.01125946900001,0 24.692279291,54.018936569,0 24.672797096,54.01691358,0 24.645942879,54.00149815,0 24.628521454,53.998106818,0 24.590236795,54.003995965,0 24.570414674,53.99690458700001,0 24.541244757,53.97819859,0 24.508038115,53.963468984,0 24.481013965,53.944711842,0 24.437184942,53.899193622,0 24.423800301,53.891752131,0 24.406378937,53.88828705300001,0 24.348442089,53.889667578,0 24.331530523,53.89395077499999,0 24.321396184,53.903246097,0 24.283536267,53.915788867,0 24.266539645,53.91878069900001,0 24.220946145,53.944441803,0 24.187207889,53.954299565,0 24.153044891,53.957700409,0 24.102756572,53.94467123999999,0 24.063622308,53.937843308,0 24.031010461,53.932153374,0 23.996592474,53.931680091,0 23.990902659,53.928516696,0 23.929540825,53.957852513,0 23.875470829,53.95267388999999,0 23.842773867,53.94569257300001,0 23.832112723,53.945946612,0 23.827689957,53.912423469,0 23.809164119,53.892170422,0 23.793803644,53.887362823,0 23.737905812,53.919736482,0 23.723309946,53.926551297,0 23.715491366,53.93837826000001,0 23.69832499,53.93878730000001,0 23.680818629,53.934030816,0 23.586318087,53.934989221,0 23.554640603,53.943504464,0 23.537474108,53.943913504,0 23.496980448,53.924626455,0 23.499082689,53.887826405,0 23.508674596,53.86173677399999,0 23.53823207,53.82972694899999,0 23.548002791,53.806355268,0 23.566984889,53.785486311,0 23.580377769,53.748417169,0 23.578053158,53.713083714,0 23.59126724,53.67329666,0 23.593963265,53.660092332,0 23.600501514,53.645682895,0 23.618701833,53.578554833,0 23.643117188,53.537139752,0 23.655146039,53.513714248,0 23.691120288,53.476107114,0 23.726111046,53.42355115899999,0 23.746904216,53.395833501,0 23.770961932,53.348982522,0 23.782722554,53.321480091,0 23.81228005,53.28947026399999,0 23.842933348,53.239739896,0 23.881523362,53.207514846,0 23.889840654,53.196427771,0 23.918034068,53.178061539,0 23.92635136,53.166974494,0 23.92257326,53.143925646,0 23.89332985,53.11195583,0 23.889372966,53.08618904,0 23.890915803,53.07526340500001,0 23.925817153,53.02134849999999,0 23.941289357,52.981507627,0 23.936706594,52.94622797899999,0 23.930580995,52.921873987,0 23.942006937,52.85490733400001,0 23.955131612,52.813761279,0 23.951823494,52.763479039,0 23.940555713,52.729719818,0 23.890184394,52.68600341700001,0 23.855150065,52.669143826,0 23.818304649,52.65913292800001,0 23.785349629,52.639501512,0 23.76674810700001,52.631778121,0 23.730081505,52.624485165,0 23.695315397,52.611702442,0 23.618002384,52.605378062,0 23.562018982,52.57948988699999,0 23.492218553,52.549847603,0 23.469190164,52.543590754,0 23.455104909,52.535759717,0 23.395432856,52.488181682,0 23.343339827,52.45267299,0 23.29261091,52.403520705,0 23.269963112,52.36867152400001,0 23.22491273,52.337078365,0 23.20000675,52.302282991,0 23.203741279,52.255916277,0 23.209800449,52.244883018,0 23.235825088,52.227929579,0 23.27358755099999,52.21750200000001,0 23.3320308,52.21202606200001,0 23.387858358,52.20116802499999,0 23.426067736,52.19753533400001,0 23.441427675,52.190363789,0 23.457972791,52.16683068,0 23.490861323,52.151074797,0 23.519054737,52.132708568,0 23.554737892,52.125052752,0 23.585368302,52.109350676,0 23.620872524,52.098976901,0 23.65132406,52.080556864,0 23.642247942,52.01135655,0 23.64678719300001,51.97617953500001,0 23.623245266,51.925526701,0 23.622665193,51.844412014,0 23.623403337,51.82019722499999,0 23.614840772,51.79194423600001,0 23.597603348,51.769600675,0 23.558589247,51.76060956700001,0 23.53998770999999,51.75253315299999,0 23.530239847,51.741389513,0 23.533325579,51.718539506,0 23.547612574,51.693987131,0 23.557383325,51.66954726,0 23.557137993,51.629700452,0 23.552376476,51.589966267,0 23.559799578,51.56416156899999,0 23.576255348,51.538131803,0 23.601922419,51.514719158,0 23.632642176,51.499720514,0 23.660500911,51.43924695300001,0 23.674810794,51.379111052,0 23.673201468,51.35353142,0 23.652901199,51.318454325,0 23.70161953,51.266795188,0 23.747431004,51.240033939,0 23.806724751,51.17593053,0 23.835186446,51.160988152,0 23.870869541,51.152982444,0 23.882987821,51.12990739899999,0 23.883457863,51.101429328,0 23.89477142100001,51.065564498,0 23.91357466,51.040899549,0 23.942036354,51.02595718800001,0 23.954869831,51.01425085399999,0 23.964461768,50.986968814,0 23.983175599,50.960882797,0 24.024113142,50.92854975,0 24.059617484,50.91770184699999,0 24.105518305,50.892361722,0 24.149161065,50.86707786,0 24.150703871,50.855652871,0 24.136439764,50.844621751,0 24.115759098,50.839443791,0 24.075023138,50.83903550100001,0 24.036724293,50.841413126,0 23.981456125,50.825710446,0 23.971708381,50.81456679299999,0 23.968645537,50.80183325,0 23.986465299,50.761536329,0 23.997040713,50.749886273,0 24.032545054,50.739038384,0 24.045557344,50.730174242,0 24.077574813,50.663903831,0 24.087838256,50.575402378,0 24.081712806,50.54993531,0 24.05032345,50.48239818100001,0 24.029665553,50.44163671,0 24.00113734,50.419574468,0 23.963934386,50.403421669,0 23.923019731,50.400171189,0 23.84832241499999,50.399185805,0 23.807229006,50.393093108,0 23.742749476,50.37477338200001,0 23.724237347,50.368118047,0 23.67205497,50.329565405,0 23.645963752,50.310289024,0 23.592417324,50.28600358800001,0 23.50573703,50.238347291,0 23.451922321,50.20979851399999,0 23.397839451,50.176986514,0 23.38078084,50.157485186,0 23.32408213,50.119045018,0 23.243729198,50.06411445,0 23.222601318,50.051831006,0 23.19389438,50.02692663599999,0 23.149201655,49.99955577199999,0 23.125279152,49.977920268,0 23.084768033,49.91054877399999,0 23.00848428,49.845759657,0 22.942484891,49.80147651999999,0 22.91125155,49.771128205,0 22.886882042,49.74208538,0 22.841474062,49.70171873400001,0 22.815114593,49.677178987,0 22.779812043,49.65435533799999,0 22.747125244,49.63739891099999,0 22.702253705,49.605921072,0 22.675804889,49.57989986,0 22.655236369,49.538887975,0 22.658322116,49.51506715699999,0 22.69013772,49.480113489,0 22.711467361,49.458786336,0 22.718734627,49.391826925,0 22.725174313,49.34862968,0 22.745252227,49.306561974,0 22.728484696,49.253581014,0 22.7179322,49.228630689,0 22.7170381,49.213816014,0 22.750217801,49.16398894499999,0 22.805419421,49.141781923,0 22.841013109,49.131954608,0 22.858475244,49.084019658,0 22.89409185,49.037096974,0 22.893376594,49.025245187,0 22.876049703,49.000470814,0 22.855547672,48.998035814,0 22.817606395,49.006440339,0 22.793929284,49.026344654,0 22.763120061,49.040499148,0 22.688959246,49.048360703,0 22.65300793,49.05226212500001,0 22.63556871400001,49.063101706,0 22.627162045,49.07370662400001,0 22.611802136,49.08152454799999,0 22.573503276,49.084003207,0 22.56384488,49.073867497,0 22.576996596,49.070607058,0 22.538406568,48.99161817299999,0 22.501491862,48.974093676,0 22.480933028,48.972947406,0 22.457411962,48.96515684600001,0 22.424295383,48.92568968199999,0 22.410725312,48.870591983,0 22.397661524,48.823882684,0 22.398497479,48.795295715,0 22.363026278,48.759250343,0 22.357127803,48.703953385,0 22.353760617,48.690598339,0 22.297831731,48.655084372,0 22.276867824,48.647227407,0 22.256410139,48.647758812,0 22.237902241,48.638157696,0 22.199468838,48.595468014,0 22.179543393,48.56237939,0 22.161365139,48.515802979,0 22.139313417,48.44748312200001,0 22.134933727,48.417351305,0 22.136680918,48.40386343,0 22.156936066,48.39997672999999,0 22.18301438,48.407700837,0 22.230562883,48.431670368,0 22.250919299,48.429461241,0 22.283378916,48.373167932,0 22.315205114,48.348816812,0 22.341815608,48.32292097800001,0 22.359108584,48.31238991,0 22.359438257,48.27541458599999,0 22.355969863,48.26038187699999,0 22.375921207,48.251462102,0 22.444965856,48.249668539,0 22.511048215,48.241230786,0 22.531202154,48.235666335,0 22.55824359,48.17447274900001,0 22.566447394,48.140653491,0 22.625086563,48.09376198099999,0 22.645240503,48.08819758900001,0 22.66866036,48.094310462,0 22.708436029,48.1168015,0 22.731957214,48.124592066,0 22.801103013,48.124476254,0 22.821054356,48.115556419,0 22.842550533,48.08979344400001,0 22.843487637,48.062884152,0 22.835538166,48.01604193399999,0 22.836403101,48.01284883200001,0 22.854497928,47.999867348,0 22.862164315,47.985589784,0 22.923008743,47.984651672,0 22.932798881,47.95395875000001,0 22.974943478,47.958533008,0 22.981401641,47.97359139700001,0 22.965779919,47.993054193,0 22.949716766,48.004725688,0 22.950599689,48.01935616199999,0 22.973010618,48.02060569099999,0 22.992082138,48.01278357999999,0 22.996663828,47.99602843000001,0 23.040602703,47.983417364,0 23.085203845,47.982212994,0 23.094862718,48.050410619,0 23.110566516,48.079309509,0 23.142885227,48.105945137,0 23.191377599,48.12300225,0 23.223393698,48.098358814,0 23.289081115,48.076504082,0 23.323774357,48.04995943,0 23.367382068,48.032341591,0 23.458517213,47.968324196,0 23.49196793500001,47.967420917,0 23.607231986,47.996889004,0 23.664141488,48.003952011,0 23.684651327,48.003419247,0 23.722295117,47.988528349,0 23.763111782,47.98392377599999,0 23.811822605,47.98260843400001,0 23.826494407,47.969953861,0 23.866904926,47.95835545700001,0 23.928028416,47.949700143,0 23.994685244,47.94790019800001,0 24.051594805,47.95511946500001,0 24.074566793,47.952747948,0 24.109342408,47.932545707,0 24.12944622,47.924998052,0 24.15744431,47.920739628,0 24.20534296,47.90543662,0 24.225649785,47.90138587400001,0 24.323477458,47.90574903,0 24.367872786,47.91855979699999,0 24.386326384,47.926817492,0 24.482909989,47.95397981999999,0 24.524335575,47.959865987,0 24.565456938,47.960506793,0 24.585864973,47.958204504,0 24.618178558,47.939819951,0 24.63285036,47.927165382,0 24.651837539,47.900384679,0 24.693187785,47.86074174900001,0 24.735959005,47.845577195,0 24.75903244,47.844954148,0 24.801905345,47.831538036,0 24.844473552,47.81287659699999,0 24.872192811,47.759592116,0 24.893642377,47.73099374800001,0 24.908415746,47.720087588,0 24.933748435,47.714149952,0 24.980098676,47.71640077200001,0 25.066325855,47.742091537,0 25.112980556,47.749587715,0 25.145064783,47.771486923,0 25.202455711,47.83122916500001,0 25.22961564,47.85676373499999,0 25.30619688,47.89322216800001,0 25.425042104,47.905773766,0 25.679033729,47.94704160300001,0 25.800517532,47.982849451,0 25.880641671,47.964399042,0 25.961898776,47.96546223999999,0 26.05821726,47.979148092,0 26.194951149,48.029658286,0 26.245281669,48.072219431,0 26.349389883,48.13531786200001,0 26.409446808,48.180759862,0 26.457889172,48.192035407,0 26.544103714,48.196062773,0 26.58758864,48.204333618,0 26.60798535,48.225738078,0 26.651092383,48.227751762,0 26.697835537,48.210870206,0 26.826213452,48.201268584,0 26.907659146,48.205419838,0 26.991796824,48.175033078,0 27.019087406,48.15238994399999,0 27.051572891,48.057542097,0 27.091470333,48.006370284,0 27.127920719,47.976321699,0 27.17735562,47.92286908799999,0 27.23174819600001,47.87253997000001,0 27.260408732,47.790332126,0 27.33982596,47.67743747199999,0 27.353614184,47.585859154,0 27.371367546,47.562578267,0 27.506450268,47.503555538,0 27.539879652,47.421218919,0 27.626142832,47.343970331,0 27.63893828,47.317565965,0 27.719062659,47.299115571,0 27.788516613,47.261409195,0 27.810660454,47.231494995,0 27.822560641,47.107394131,0 27.951175543,47.019229861,0 28.071763846,46.957341153,0 28.093907925,46.927426994,0 28.112464758,46.835719928,0 28.110813709,46.725014269,0 28.159541699,46.57711744299999,0 28.189713331,46.520927638,0 28.20005426,46.452243924,0 28.190565439,46.37106627199999,0 28.147506329,46.287537694,0 28.106146666,46.233279407,0 28.088253351,46.17187285399999,0 28.094203087,46.109822333,0 28.109501692,46.044262111,0 28.107332798,45.836561084,0 28.12494549399999,45.72461769,0 28.124427649,45.630068362,0 28.132454487,45.602825344,0 28.121406409,45.576116621,0 28.124476048,45.54563513399999,0 28.142229172,45.52149713,0 28.254223967,45.476682149,0 28.30899396,45.431244105,0 28.337654496,45.346009698,0 28.374860192,45.328081638,0 28.455739642,45.322439961,0 28.536807919,45.320170268,0 28.606072808,45.277703695,0 28.686008358,45.255202048,0 28.718634034,45.240779482,0 28.756594801,45.236339413,0 28.786339903,45.255770303,0 28.807114268,45.28558421899999,0 28.959335947,45.27456788,0 29.053717757,45.33947103500001,0 29.122178936,45.36794982100001,0 29.247298623,45.3847105,0 29.328178072,45.379068822,0 29.36764946,45.401604686,0 29.406365776,45.410652578,0 29.521003867,45.41082031,0 29.558398152,45.396264247,0 29.603442097,45.34772123,0 29.621006871,45.320211239,0 29.65344371799999,45.302416705,0 29.674265767,45.247797258,0 29.672755623,45.22082131400001,0 
				</coordinates>
			</LineString>
		</Placemark>
		<Placemark>
			<name>Kosovo</name>
			<Snippet maxLines="0"></Snippet>
			<description>&amp;nbsp;</description>
			<styleUrl>#stylemap_id8</styleUrl>
			<LineString>
				<tessellate>1</tessellate>
				<coordinates>
					20.531467629,42.883257031,0 20.474568543,42.851246744,0 20.448307422,42.830440059,0 20.430800003,42.830440059,0 20.39578518,42.843244165,0 20.378277761,42.846445203,0 20.325755519,42.832040578,0 20.290740711,42.835241616,0 20.260102731,42.820836976,0 20.251349014,42.809633389,0 20.251349014,42.796829268,0 20.257914317,42.784025162,0 20.257914317,42.771221042,0 20.225087923,42.755215913,0 20.187884671,42.753615394,0 20.159435106,42.77282156,0 20.139739287,42.77282156,0 20.124420268,42.7664195,0 20.089405459,42.7664195,0 20.076274914,42.777623102,0 20.05876748,42.782424644,0 20.025941116,42.77282156,0 20.012810511,42.763218477,0 20.006245238,42.750414371,0 20.014998955,42.724806145,0 20.041260106,42.689594842,0 20.076274914,42.679991752,0 20.111289722,42.67839124,0 20.126608712,42.671989187,0 20.124420268,42.659185074,0 20.106912893,42.649581991,0 20.089405459,42.644780449,0 20.080651742,42.633576851,0 20.082840187,42.595164518,0 20.087217015,42.582360407,0 20.078463358,42.571156809,0 20.109101278,42.539146531,0 20.135362429,42.51833985,0 20.190094858,42.512621456,0 20.196638358,42.467123404,0 20.222899479,42.447917238,0 20.227276337,42.435113132,0 20.211957348,42.427110553,0 20.209768933,42.401502341,0 20.222899479,42.391899258,0 20.240406883,42.387097716,0 20.240406883,42.374293595,0 20.229464752,42.335881263,0 20.238218469,42.324677676,0 20.297305984,42.316675097,0 20.312624973,42.324677676,0 20.332320822,42.329479217,0 20.349828226,42.327878684,0 20.365147215,42.318275601,0 20.373900903,42.307072014,0 20.404538882,42.291066885,0 20.459249553,42.27666226,0 20.487699089,42.260657102,0 20.509583366,42.225445807,0 20.522713919,42.215842724,0 20.564294023,42.153422683,0 20.568670881,42.126213938,0 20.562105601,42.087801605,0 20.566482452,42.07339701,0 20.590555144,42.050989777,0 20.60587413,42.042987198,0 20.614627835,42.03178361,0 20.594931995,42.001373857,0 20.610250983,41.974991731,0 20.610250983,41.960127093,0 20.601497275,41.946914084,0 20.583989863,41.940307576,0 20.570859303,41.930397816,0 20.570859303,41.915533178,0 20.588366718,41.890758783,0 20.601497275,41.879197404,0 20.616816261,41.872590899,0 20.656207939,41.875894152,0 20.67371535,41.874242514,0 20.684657485,41.862681136,0 20.702164901,41.856074631,0 20.719672312,41.856074631,0 20.734991294,41.865984395,0 20.770006117,41.907275051,0 20.767817688,41.946914084,0 20.745933426,42.006175369,0 20.748121855,42.034984618,0 20.754687135,42.06059286,0 20.776571405,42.084600568,0 20.83565892,42.10220623,0 20.890369576,42.108608276,0 20.907876981,42.113409817,0 20.92319597,42.139018059,0 21.01073305,42.161425233,0 21.052313131,42.169427812,0 21.067632121,42.175829857,0 21.089516384,42.196636557,0 21.111400646,42.203038603,0 21.150792343,42.206239641,0 21.166111332,42.198237061,0 21.170488161,42.156623691,0 21.174865049,42.1438196,0 21.205503029,42.127814442,0 21.238329393,42.115010351,0 21.242706281,42.10220623,0 21.258025211,42.095804185,0 21.277721089,42.094203651,0 21.297416908,42.097404688,0 21.328054887,42.116610855,0 21.33462016,42.187033474,0 21.341185433,42.201438099,0 21.378388685,42.238249928,0 21.393707675,42.246252477,0 21.411215109,42.246252477,0 21.426534099,42.239850432,0 21.444041473,42.244651973,0 21.450606746,42.271860719,0 21.46811418,42.278262764,0 21.505317432,42.27666226,0 21.533766967,42.260657102,0 21.542520684,42.249453515,0 21.562216503,42.251054019,0 21.575347108,42.262257635,0 21.581912381,42.275061726,0 21.579723937,42.289466351,0 21.55565123,42.311873555,0 21.54033224,42.318275601,0 21.529390139,42.332680225,0 21.538143856,42.363089993,0 21.553462845,42.374293595,0 21.57097022,42.380695656,0 21.623492462,42.385497197,0 21.64318828,42.409504905,0 21.645376724,42.425510049,0 21.638811511,42.438314155,0 21.625680906,42.447917238,0 21.630057734,42.463922374,0 21.691333694,42.510337278,0 21.732913774,42.542347558,0 21.739479107,42.569556295,0 21.748232764,42.582360407,0 21.765740198,42.590362976,0 21.781059188,42.603167087,0 21.792001289,42.630375825,0 21.785436076,42.657584563,0 21.785436076,42.670388669,0 21.7766823,42.684793301,0 21.756986541,42.692795865,0 21.717594785,42.692795865,0 21.662884158,42.681592271,0 21.645376724,42.686393812,0 21.62786935,42.71040152,0 21.573158664,42.723205626,0 21.557839674,42.731208205,0 21.518447978,42.729607686,0 21.500940603,42.732808709,0 21.485621614,42.74561283,0 21.46811418,42.750414371,0 21.450606746,42.750414371,0 21.411215109,42.744012311,0 21.398084563,42.755215913,0 21.42215721,42.779223621,0 21.4374762,42.790427223,0 21.448418361,42.820836976,0 21.457172078,42.832040578,0 21.459360463,42.859249324,0 21.446229917,42.868852407,0 21.389330846,42.87845549,0 21.341185433,42.89926216,0 21.303982181,42.912066281,0 21.286474806,42.913666785,0 21.266778928,42.92006883,0 21.244894666,42.942476034,0 21.240517837,43.009697645,0 21.229575676,43.020901242,0 21.209879858,43.025702784,0 21.174865049,43.016099701,0 21.157357615,43.016099701,0 21.148603899,43.027303299,0 21.148603899,43.05611255,0 21.137661767,43.094524883,0 21.102646959,43.128135681,0 21.082951111,43.131336704,0 21.019486737,43.116932079,0 21.01073305,43.128135681,0 20.995414061,43.136138245,0 20.940703404,43.148942351,0 20.925384414,43.155344412,0 20.890369576,43.160145953,0 20.857543183,43.196957767,0 20.866296885,43.24817422,0 20.850977895,43.2561768,0 20.794078809,43.270581424,0 20.776571405,43.264179349,0 20.763440837,43.254576266,0 20.745933426,43.249774739,0 20.728426014,43.251375258,0 20.715295454,43.240171656,0 20.699976471,43.233769596,0 20.64307738,43.227367535,0 20.608062555,43.216163933,0 20.601497275,43.203359827,0 20.627758394,43.17935212,0 20.678092205,43.156944931,0 20.691222766,43.145741329,0 20.691222766,43.116932079,0 20.678092205,43.104127966,0 20.664961646,43.078519747,0 20.678092205,43.051311009,0 20.67590378,43.038506895,0 20.629946821,43.014499187,0 20.594931995,43.020901242,0 20.583989863,42.995292991,0 20.568670881,42.985689908,0 20.551163462,42.982488871,0 20.533656051,42.984089404,0 20.516148639,42.979287863,0 20.498641235,42.955280155,0 20.494264376,42.942476034,0 20.498641235,42.929671913,0 20.52709077,42.908865243,0 20.529279199,42.896061122,0 20.524902348,42.883257031,0 
				</coordinates>
			</LineString>
		</Placemark>
	</Folder>
</Document>
</kml>
